NORAD_CAT_ID,OBJECT_NAME,OBJECT_TYPE,EPOCH,MEAN_MOTION,ECCENTRICITY,INCLINATION,RA_OF_ASC_NODE,ARG_OF_PERICENTER,MEAN_ANOMALY,BSTAR,MEAN_MOTION_DOT,MEAN_MOTION_DDOT,TLE_LINE0,TLE_LINE1,TLE_LINE2,SEMIMAJOR_AXIS,PERIOD,APOGEE,PERIGEE,DECAYED
53563.0,STARLINK-4561,PAYLOAD,2024-04-21 18:58:53,15.08858845,0.0001397,53.217,257.9505,116.5513,243.5622,0.0002064,3e-05,0.0,0 STARLINK-4561,1 53563U 22101AN  24112.79090079  .00003000  00000-0  20640-3 0  9997,2 53563  53.2170 257.9505 0001397 116.5513 243.5622 15.08858845 92745,6917.823,95.436,540.654,538.721,0.0
53563.0,STARLINK-4561,PAYLOAD,2024-04-22 09:17:22,15.08845504,0.000143,53.2164,255.275,108.2133,251.9015,0.00020791,3.023e-05,0.0,0 STARLINK-4561,1 53563U 22101AN  24113.38706519  .00003023  00000-0  20791-3 0  9998,2 53563  53.2164 255.2750 0001430 108.2133 251.9015 15.08845504 92832,6917.864,95.437,540.718,538.739,0.0
53563.0,STARLINK-4561,PAYLOAD,2024-04-22 15:38:55,15.08841245,0.0001484,53.2182,254.0792,114.9593,245.1554,0.00016827,2.391e-05,0.0,0 STARLINK-4561,1 53563U 22101AN  24113.65202920  .00002391  00000-0  16827-3 0  9997,2 53563  53.2182 254.0792 0001484 114.9593 245.1554 15.08841245 92873,6917.877,95.437,540.768,538.715,0.0
53563.0,STARLINK-4561,PAYLOAD,2024-04-23 12:18:57,15.08839751,0.0001458,53.2183,250.2185,100.2626,259.8531,-0.00011494,-2.117e-05,0.0,0 STARLINK-4561,1 53563U 22101AN  24114.51316292 -.00002117  00000-0 -11494-3 0  9994,2 53563  53.2183 250.2185 0001458 100.2626 259.8531 15.08839751 93006,6917.881,95.438,540.755,538.738,0.0
53563.0,STARLINK-4561,PAYLOAD,2024-04-23 13:54:20,15.08839199,0.0001716,53.2186,249.9195,125.5356,234.5796,-0.00013489,-2.434e-05,0.0,0 STARLINK-4561,1 53563U 22101AN  24114.57940196 -.00002434  00000-0 -13489-3 0  9994,2 53563  53.2186 249.9195 0001716 125.5356 234.5796 15.08839199 93012,6917.883,95.438,540.935,538.561,0.0
53563.0,STARLINK-4561,PAYLOAD,2024-04-23 15:29:43,15.08840102,0.0001514,53.2181,249.6225,107.7894,252.3264,-0.00012061,-2.207e-05,0.0,0 STARLINK-4561,1 53563U 22101AN  24114.64564182 -.00002207  00000-0 -12061-3 0  9992,2 53563  53.2181 249.6225 0001514 107.7894 252.3264 15.08840102 93028,6917.88,95.438,540.792,538.698,0.0
53563.0,STARLINK-4561,PAYLOAD,2024-04-24 13:45:07,15.08831566,0.0001385,53.217,245.4606,101.4405,258.6742,4.7709e-05,4.71e-06,0.0,0 STARLINK-4561,1 53563U 22101AN  24115.57300255  .00000471  00000-0  47709-4 0  9991,2 53563  53.2170 245.4606 0001385 101.4405 258.6742 15.08831566 93167,6917.906,95.438,540.729,538.813,0.0
53563.0,STARLINK-4561,PAYLOAD,2024-04-24 15:20:30,15.08832851,0.0001401,53.2172,245.1634,99.9434,260.1716,5.6774e-05,6.16e-06,0.0,0 STARLINK-4561,1 53563U 22101AN  24115.63924191  .00000616  00000-0  56774-4 0  9992,2 53563  53.2172 245.1634 0001401  99.9434 260.1716 15.08832851 93177,6917.902,95.438,540.736,538.798,0.0
53563.0,STARLINK-4561,PAYLOAD,2024-04-25 12:00:31,15.08827621,0.000139,53.2172,241.2957,108.4324,251.6819,2.5476e-05,1.17e-06,0.0,0 STARLINK-4561,1 53563U 22101AN  24116.50036993  .00000117  00000-0  25476-4 0  9994,2 53563  53.2172 241.2957 0001390 108.4324 251.6819 15.08827621 93306,6917.918,95.438,540.745,538.822,0.0
53563.0,STARLINK-4561,PAYLOAD,2024-04-25 13:35:55,15.08827235,0.0001561,53.2176,240.9971,121.0194,239.0952,2.1676e-05,5.7e-07,0.0,0 STARLINK-4561,1 53563U 22101AN  24116.56661027  .00000057  00000-0  21676-4 0  9993,2 53563  53.2176 240.9971 0001561 121.0194 239.0952 15.08827235 93318,6917.919,95.438,540.864,538.705,0.0
53563.0,STARLINK-4561,PAYLOAD,2024-04-25 15:11:18,15.08822211,0.0001235,53.2179,240.702,108.729,251.3836,5.7989e-05,6.35e-06,0.0,0 STARLINK-4561,1 53563U 22101AN  24116.63285321  .00000635  00000-0  57989-4 0  9998,2 53563  53.2179 240.7020 0001235 108.7290 251.3836 15.08822211 93329,6917.935,95.439,540.654,538.945,0.0
53563.0,STARLINK-4561,PAYLOAD,2024-04-26 13:26:41,15.08837983,0.0001321,53.2171,236.5382,108.2024,251.9112,7.3218e-05,8.78e-06,0.0,0 STARLINK-4561,1 53563U 22101AN  24117.56020735  .00000878  00000-0  73218-4 0  9999,2 53563  53.2171 236.5382 0001321 108.2024 251.9112 15.08837983 93461,6917.887,95.438,540.665,538.838,0.0
53563.0,STARLINK-4561,PAYLOAD,2024-04-26 15:02:05,15.0883646,0.0001156,53.2175,236.2486,100.9312,259.181,0.00013361,1.839e-05,0.0,0 STARLINK-4561,1 53563U 22101AN  24117.62644944  .00001839  00000-0  13361-3 0  9990,2 53563  53.2175 236.2486 0001156 100.9312 259.1810 15.08836460 93477,6917.891,95.438,540.556,538.957,0.0
53563.0,STARLINK-4561,PAYLOAD,2024-04-27 13:17:29,15.08820378,0.0001574,53.2187,232.0852,97.4155,262.7016,3.7392e-06,-2.28e-06,0.0,0 STARLINK-4561,1 53563U 22101AN  24118.55381866 -.00000228  00000-0  37392-5 0  9998,2 53563  53.2187 232.0852 0001574  97.4155 262.7016 15.08820378 93615,6917.94,95.439,540.894,538.716,0.0
53563.0,STARLINK-4561,PAYLOAD,2024-04-27 14:52:52,15.08821336,0.0001451,53.2184,231.7914,102.9543,257.1611,4.38e-05,4.09e-06,0.0,0 STARLINK-4561,1 53563U 22101AN  24118.62005716  .00000409  00000-0  43800-4 0  9993,2 53563  53.2184 231.7914 0001451 102.9543 257.1611 15.08821336 93629,6917.937,95.439,540.806,538.799,0.0
53563.0,STARLINK-4561,PAYLOAD,2024-04-27 16:28:15,15.08831722,0.0001265,53.2181,231.4887,82.2633,277.8503,7.4308e-05,8.95e-06,0.0,0 STARLINK-4561,1 53563U 22101AN  24118.68629042  .00000895  00000-0  74308-4 0  9999,2 53563  53.2181 231.4887 0001265  82.2633 277.8503 15.08831722 93635,6917.906,95.438,540.646,538.896,0.0
53563.0,STARLINK-4561,PAYLOAD,2024-04-28 13:08:17,15.0882108,0.0001367,53.217,227.624,89.2774,270.8375,-0.00014685,-2.623e-05,0.0,0 STARLINK-4561,1 53563U 22101AN  24119.54742848 -.00002623  00000-0 -14685-3 0  9999,2 53563  53.2170 227.6240 0001367  89.2774 270.8375 15.08821080 93769,6917.938,95.439,540.749,538.858,0.0
53563.0,STARLINK-4561,PAYLOAD,2024-04-28 14:43:40,15.08821674,0.0001455,53.2182,227.3248,86.4379,273.6779,-0.00011311,-2.087e-05,0.0,0 STARLINK-4561,1 53563U 22101AN  24119.61366762 -.00002087  00000-0 -11311-3 0  9991,2 53563  53.2182 227.3248 0001455  86.4379 273.6779 15.08821674 93774,6917.936,95.439,540.808,538.795,0.0
53563.0,STARLINK-4561,PAYLOAD,2024-04-28 16:19:03,15.08833558,0.0001065,53.2162,227.0278,85.0203,275.0911,-4.3099e-05,-9.73e-06,0.0,0 STARLINK-4561,1 53563U 22101AN  24119.67989777 -.00000973  00000-0 -43099-4 0  9995,2 53563  53.2162 227.0278 0001065  85.0203 275.0911 15.08833558 93789,6917.9,95.438,540.502,539.028,0.0
53563.0,STARLINK-4561,PAYLOAD,2024-04-29 12:59:03,15.08834615,0.0001289,53.2165,223.1619,73.0804,287.0329,0.00013402,1.845e-05,0.0,0 STARLINK-4561,1 53563U 22101AN  24120.54101309  .00001845  00000-0  13402-3 0  9991,2 53563  53.2165 223.1619 0001289  73.0804 287.0329 15.08834615 93916,6917.897,95.438,540.654,538.87,0.0
53563.0,STARLINK-4561,PAYLOAD,2024-04-29 14:34:26,15.0883653,0.0001244,53.2171,222.8648,68.8702,291.2423,0.0001558,2.192e-05,0.0,0 STARLINK-4561,1 53563U 22101AN  24120.60725199  .00002192  00000-0  15580-3 0  9992,2 53563  53.2171 222.8648 0001244  68.8702 291.2423 15.08836530 93922,6917.891,95.438,540.617,538.895,0.0
53563.0,STARLINK-4561,PAYLOAD,2024-04-30 00:06:44,15.08850823,0.0001279,53.2174,221.0804,71.7809,288.3322,0.00015888,2.242e-05,0.0,0 STARLINK-4561,1 53563U 22101AN  24121.00468229  .00002242  00000-0  15888-3 0  9992,2 53563  53.2174 221.0804 0001279  71.7809 288.3322 15.08850823 93981,6917.847,95.437,540.597,538.828,0.0
53563.0,STARLINK-4561,PAYLOAD,2024-04-30 12:49:50,15.08837207,0.0001372,53.2183,218.7008,80.4774,279.6373,0.00013854,1.917e-05,0.0,0 STARLINK-4561,1 53563U 22101AN  24121.53461348  .00001917  00000-0  13854-3 0  9994,2 53563  53.2183 218.7008 0001372  80.4774 279.6373 15.08837207 94062,6917.889,95.438,540.703,538.805,0.0
53563.0,STARLINK-4561,PAYLOAD,2024-04-30 23:57:31,15.08848023,0.0001144,53.2164,216.6199,79.5173,280.5948,0.00013128,1.803e-05,0.0,0 STARLINK-4561,1 53563U 22101AN  24121.99828496  .00001803  00000-0  13128-3 0  9993,2 53563  53.2164 216.6199 0001144  79.5173 280.5948 15.08848023 94133,6917.856,95.437,540.512,538.929,0.0
53563.0,STARLINK-4561,PAYLOAD,2024-05-01 12:40:37,15.08839829,0.0001132,53.2187,214.2409,88.659,271.4532,0.00011981,1.619e-05,0.0,0 STARLINK-4561,1 53563U 22101AN  24122.52820934  .00001619  00000-0  11981-3 0  9992,2 53563  53.2187 214.2409 0001132  88.6590 271.4532 15.08839829 94218,6917.881,95.438,540.529,538.963,0.0
53563.0,STARLINK-4561,PAYLOAD,2024-05-02 12:31:24,15.0883042,0.0001179,53.2165,209.7797,89.7865,270.3262,4.2636e-06,-2.2e-06,0.0,0 STARLINK-4561,1 53563U 22101AN  24123.52181576 -.00000220  00000-0  42636-5 0  9996,2 53563  53.2165 209.7797 0001179  89.7865 270.3262 15.08830420 94363,6917.91,95.438,540.59,538.959,0.0
53563.0,STARLINK-4561,PAYLOAD,2024-05-03 12:22:10,15.08848203,0.0001418,53.2172,205.3219,90.9043,269.2112,6.1087e-05,6.85e-06,0.0,0 STARLINK-4561,1 53563U 22101AN  24124.51540205  .00000685  00000-0  61087-4 0  9998,2 53563  53.2172 205.3219 0001418  90.9043 269.2112 15.08848203 94516,6917.855,95.437,540.701,538.739,0.0
53563.0,STARLINK-4561,PAYLOAD,2024-05-03 21:54:28,15.08884274,0.0001432,53.217,203.5366,98.875,261.2404,-0.00026874,-4.568e-05,0.0,0 STARLINK-4561,1 53563U 22101AN  24124.91282408 -.00004568  00000-0 -26874-3 0  9990,2 53563  53.2170 203.5366 0001432  98.8750 261.2404 15.08884274 94575,6917.745,95.435,540.601,538.619,0.0
53563.0,STARLINK-4561,PAYLOAD,2024-05-04 12:12:59,15.08818121,0.0001293,53.2164,200.8603,98.698,261.4158,-2.0743e-05,-6.18e-06,0.0,0 STARLINK-4561,1 53563U 22101AN  24125.50902760 -.00000618  00000-0 -20743-4 0  9998,2 53563  53.2164 200.8603 0001293  98.6980 261.4158 15.08818121 94666,6917.947,95.439,540.707,538.918,0.0
53563.0,STARLINK-4561,PAYLOAD,2024-05-05 04:06:50,15.08837014,0.0001256,53.2164,197.8852,90.7811,269.3325,-3.8042e-05,-8.93e-06,0.0,0 STARLINK-4561,1 53563U 22101AN  24126.17142260 -.00000893  00000-0 -38042-4 0  9999,2 53563  53.2164 197.8852 0001256  90.7811 269.3325 15.08837014 94768,6917.89,95.438,540.623,538.886,0.0
